[{"OBJECT_NAME":"STARLINK-36791","OBJECT_ID":"2026-044L","EPOCH":"2026-03-16T18:00:01.999296","MEAN_MOTION":15.94771155,"ECCENTRICITY":0.0001623,"INCLINATION":97.281,"RA_OF_ASC_NODE":36.1786,"ARG_OF_PERICENTER":86.5095,"MEAN_ANOMALY":53.3765,"EPHEMERIS_TYPE":0,"CLASSIFICATION_TYPE":"U","NORAD_CAT_ID":68111,"ELEMENT_SET_NO":999,"REV_AT_EPOCH":248,"BSTAR":-0.0054769,"MEAN_MOTION_DOT":-0.02062405,"MEAN_MOTION_DDOT":0.0011899},{"OBJECT_NAME":"STARLINK-36893","OBJECT_ID":"2026-044M","EPOCH":"2026-03-16T18:00:01.999296","MEAN_MOTION":15.94901264,"ECCENTRICITY":0.0001593,"INCLINATION":97.2807,"RA_OF_ASC_NODE":36.1795,"ARG_OF_PERICENTER":84.2067,"MEAN_ANOMALY":58.3902,"EPHEMERIS_TYPE":0,"CLASSIFICATION_TYPE":"U","NORAD_CAT_ID":68112,"ELEMENT_SET_NO":999,"REV_AT_EPOCH":253,"BSTAR":-0.0054353,"MEAN_MOTION_DOT":-0.02060921,"MEAN_MOTION_DDOT":0.00119},{"OBJECT_NAME":"STARLINK-36937","OBJECT_ID":"2026-044N","EPOCH":"2026-03-16T18:00:01.999296","MEAN_MOTION":15.95157434,"ECCENTRICITY":0.0001664,"INCLINATION":97.2807,"RA_OF_ASC_NODE":36.1821,"ARG_OF_PERICENTER":90.8279,"MEAN_ANOMALY":57.397,"EPHEMERIS_TYPE":0,"CLASSIFICATION_TYPE":"U","NORAD_CAT_ID":68113,"ELEMENT_SET_NO":999,"REV_AT_EPOCH":248,"BSTAR":-0.0053726,"MEAN_MOTION_DOT":-0.02065063,"MEAN_MOTION_DDOT":0.0011979},{"OBJECT_NAME":"STARLINK-36229","OBJECT_ID":"2026-044P","EPOCH":"2026-03-16T18:00:01.999296","MEAN_MOTION":15.95029185,"ECCENTRICITY":0.0001604,"INCLINATION":97.2802,"RA_OF_ASC_NODE":36.1801,"ARG_OF_PERICENTER":88.6361,"MEAN_ANOMALY":56.8938,"EPHEMERIS_TYPE":0,"CLASSIFICATION_TYPE":"U","NORAD_CAT_ID":68114,"ELEMENT_SET_NO":999,"REV_AT_EPOCH":253,"BSTAR":-0.0054174,"MEAN_MOTION_DOT":-0.02068053,"MEAN_MOTION_DDOT":0.0011995},{"OBJECT_NAME":"STARLINK-36392","OBJECT_ID":"2026-044Q","EPOCH":"2026-03-16T18:00:01.999296","MEAN_MOTION":15.95278691,"ECCENTRICITY":0.0001602,"INCLINATION":97.2803,"RA_OF_ASC_NODE":36.1831,"ARG_OF_PERICENTER":83.9963,"MEAN_ANOMALY":67.4509,"EPHEMERIS_TYPE":0,"CLASSIFICATION_TYPE":"U","NORAD_CAT_ID":68115,"ELEMENT_SET_NO":999,"REV_AT_EPOCH":253,"BSTAR":-0.0053676,"MEAN_MOTION_DOT":-0.02076365,"MEAN_MOTION_DDOT":0.001212},{"OBJECT_NAME":"STARLINK-36805","OBJECT_ID":"2026-044R","EPOCH":"2026-03-16T18:00:01.999296","MEAN_MOTION":15.95383398,"ECCENTRICITY":0.0001652,"INCLINATION":97.2802,"RA_OF_ASC_NODE":36.1845,"ARG_OF_PERICENTER":86.572,"MEAN_ANOMALY":68.44,"EPHEMERIS_TYPE":0,"CLASSIFICATION_TYPE":"U","NORAD_CAT_ID":68116,"ELEMENT_SET_NO":999,"REV_AT_EPOCH":253,"BSTAR":-0.0053494,"MEAN_MOTION_DOT":-0.0208086,"MEAN_MOTION_DDOT":0.0012184},{"OBJECT_NAME":"STARLINK-36844","OBJECT_ID":"2026-044S","EPOCH":"2026-03-16T18:00:01.999296","MEAN_MOTION":15.95511483,"ECCENTRICITY":0.0001621,"INCLINATION":97.2798,"RA_OF_ASC_NODE":36.1854,"ARG_OF_PERICENTER":85.847,"MEAN_ANOMALY":71.9199,"EPHEMERIS_TYPE":0,"CLASSIFICATION_TYPE":"U","NORAD_CAT_ID":68117,"ELEMENT_SET_NO":999,"REV_AT_EPOCH":248,"BSTAR":-0.005312,"MEAN_MOTION_DOT":-0.02080522,"MEAN_MOTION_DDOT":0.0012197},{"OBJECT_NAME":"STARLINK-36789","OBJECT_ID":"2026-044T","EPOCH":"2026-03-16T18:00:01.999296","MEAN_MOTION":15.95555207,"ECCENTRICITY":0.0001705,"INCLINATION":97.2799,"RA_OF_ASC_NODE":36.1879,"ARG_OF_PERICENTER":84.2591,"MEAN_ANOMALY":78.8536,"EPHEMERIS_TYPE":0,"CLASSIFICATION_TYPE":"U","NORAD_CAT_ID":68118,"ELEMENT_SET_NO":999,"REV_AT_EPOCH":248,"BSTAR":-0.0053796,"MEAN_MOTION_DOT":-0.02111612,"MEAN_MOTION_DDOT":0.0012553},{"OBJECT_NAME":"STARLINK-36850","OBJECT_ID":"2026-044U","EPOCH":"2026-03-16T18:00:01.999296","MEAN_MOTION":15.95681926,"ECCENTRICITY":0.0001658,"INCLINATION":97.2798,"RA_OF_ASC_NODE":36.1891,"ARG_OF_PERICENTER":87.14,"MEAN_ANOMALY":78.8123,"EPHEMERIS_TYPE":0,"CLASSIFICATION_TYPE":"U","NORAD_CAT_ID":68119,"ELEMENT_SET_NO":999,"REV_AT_EPOCH":248,"BSTAR":-0.0053441,"MEAN_MOTION_DOT":-0.0211194,"MEAN_MOTION_DDOT":0.0012574},{"OBJECT_NAME":"STARLINK-36868","OBJECT_ID":"2026-044V","EPOCH":"2026-03-16T18:00:01.999296","MEAN_MOTION":15.95798013,"ECCENTRICITY":0.0001615,"INCLINATION":97.2794,"RA_OF_ASC_NODE":36.1909,"ARG_OF_PERICENTER":86.7984,"MEAN_ANOMALY":82.6274,"EPHEMERIS_TYPE":0,"CLASSIFICATION_TYPE":"U","NORAD_CAT_ID":68120,"ELEMENT_SET_NO":999,"REV_AT_EPOCH":248,"BSTAR":-0.0053418,"MEAN_MOTION_DOT":-0.02124092,"MEAN_MOTION_DDOT":0.0012729},{"OBJECT_NAME":"STARLINK-36855","OBJECT_ID":"2026-044W","EPOCH":"2026-03-16T18:00:01.999296","MEAN_MOTION":15.95920602,"ECCENTRICITY":0.0001714,"INCLINATION":97.2793,"RA_OF_ASC_NODE":36.1925,"ARG_OF_PERICENTER":88.5011,"MEAN_ANOMALY":84.1276,"EPHEMERIS_TYPE":0,"CLASSIFICATION_TYPE":"U","NORAD_CAT_ID":68121,"ELEMENT_SET_NO":999,"REV_AT_EPOCH":248,"BSTAR":-0.0053323,"MEAN_MOTION_DOT":-0.02134223,"MEAN_MOTION_DDOT":0.0012863},{"OBJECT_NAME":"STARLINK-36366","OBJECT_ID":"2026-044X","EPOCH":"2026-03-16T18:00:01.999296","MEAN_MOTION":15.96050966,"ECCENTRICITY":0.0001685,"INCLINATION":97.2791,"RA_OF_ASC_NODE":36.1934,"ARG_OF_PERICENTER":87.068,"MEAN_ANOMALY":88.257,"EPHEMERIS_TYPE":0,"CLASSIFICATION_TYPE":"U","NORAD_CAT_ID":68122,"ELEMENT_SET_NO":999,"REV_AT_EPOCH":253,"BSTAR":-0.0052926,"MEAN_MOTION_DOT":-0.02133263,"MEAN_MOTION_DDOT":0.0012871},{"OBJECT_NAME":"STARLINK-36922","OBJECT_ID":"2026-044Y","EPOCH":"2026-03-16T18:00:01.999296","MEAN_MOTION":15.96299581,"ECCENTRICITY":0.0001686,"INCLINATION":97.2792,"RA_OF_ASC_NODE":36.1959,"ARG_OF_PERICENTER":90.1269,"MEAN_ANOMALY":90.9818,"EPHEMERIS_TYPE":0,"CLASSIFICATION_TYPE":"U","NORAD_CAT_ID":68123,"ELEMENT_SET_NO":999,"REV_AT_EPOCH":253,"BSTAR":-0.0052205,"MEAN_MOTION_DOT":-0.02132598,"MEAN_MOTION_DDOT":0.00129},{"OBJECT_NAME":"STARLINK-36938","OBJECT_ID":"2026-044Z","EPOCH":"2026-03-16T18:00:01.999296","MEAN_MOTION":15.96427887,"ECCENTRICITY":0.0001679,"INCLINATION":97.2791,"RA_OF_ASC_NODE":36.1971,"ARG_OF_PERICENTER":89.6522,"MEAN_ANOMALY":94.1008,"EPHEMERIS_TYPE":0,"CLASSIFICATION_TYPE":"U","NORAD_CAT_ID":68124,"ELEMENT_SET_NO":999,"REV_AT_EPOCH":253,"BSTAR":-0.0051753,"MEAN_MOTION_DOT":-0.02128841,"MEAN_MOTION_DDOT":0.0012875},{"OBJECT_NAME":"STARLINK-36839","OBJECT_ID":"2026-044AA","EPOCH":"2026-03-16T18:00:01.999296","MEAN_MOTION":15.96167086,"ECCENTRICITY":0.0001634,"INCLINATION":97.2794,"RA_OF_ASC_NODE":36.195,"ARG_OF_PERICENTER":89.0715,"MEAN_ANOMALY":89.4334,"EPHEMERIS_TYPE":0,"CLASSIFICATION_TYPE":"U","NORAD_CAT_ID":68125,"ELEMENT_SET_NO":999,"REV_AT_EPOCH":248,"BSTAR":-0.0052581,"MEAN_MOTION_DOT":-0.02132633,"MEAN_MOTION_DDOT":0.0012881}]
