STARLINK-36791          
1 68111U 26044L   26075.75002314 -.02062405  11899-2 -54769-2 0  9999
2 68111  97.2810  36.1786 0001623  86.5095  53.3765 15.94771155  2480
STARLINK-36893          
1 68112U 26044M   26075.75002314 -.02060921  11900-2 -54353-2 0  9993
2 68112  97.2807  36.1795 0001593  84.2067  58.3902 15.94901264  2537
STARLINK-36937          
1 68113U 26044N   26075.75002314 -.02065063  11979-2 -53726-2 0  9995
2 68113  97.2807  36.1821 0001664  90.8279  57.3970 15.95157434  2486
STARLINK-36229          
1 68114U 26044P   26075.75002314 -.02068053  11995-2 -54174-2 0  9994
2 68114  97.2802  36.1801 0001604  88.6361  56.8938 15.95029185  2536
STARLINK-36392          
1 68115U 26044Q   26075.75002314 -.02076365  12120-2 -53676-2 0  9997
2 68115  97.2803  36.1831 0001602  83.9963  67.4509 15.95278691  2535
STARLINK-36805          
1 68116U 26044R   26075.75002314 -.02080860  12184-2 -53494-2 0  9991
2 68116  97.2802  36.1845 0001652  86.5720  68.4400 15.95383398  2537
STARLINK-36844          
1 68117U 26044S   26075.75002314 -.02080522  12197-2 -53120-2 0  9997
2 68117  97.2798  36.1854 0001621  85.8470  71.9199 15.95511483  2488
STARLINK-36789          
1 68118U 26044T   26075.75002314 -.02111612  12553-2 -53796-2 0  9998
2 68118  97.2799  36.1879 0001705  84.2591  78.8536 15.95555207  2480
STARLINK-36850          
1 68119U 26044U   26075.75002314 -.02111940  12574-2 -53441-2 0  9993
2 68119  97.2798  36.1891 0001658  87.1400  78.8123 15.95681926  2482
STARLINK-36868          
1 68120U 26044V   26075.75002314 -.02124092  12729-2 -53418-2 0  9993
2 68120  97.2794  36.1909 0001615  86.7984  82.6274 15.95798013  2481
STARLINK-36855          
1 68121U 26044W   26075.75002314 -.02134223  12863-2 -53323-2 0  9995
2 68121  97.2793  36.1925 0001714  88.5011  84.1276 15.95920602  2480
STARLINK-36366          
1 68122U 26044X   26075.75002314 -.02133263  12871-2 -52926-2 0  9996
2 68122  97.2791  36.1934 0001685  87.0680  88.2570 15.96050966  2538
STARLINK-36922          
1 68123U 26044Y   26075.75002314 -.02132598  12900-2 -52205-2 0  9990
2 68123  97.2792  36.1959 0001686  90.1269  90.9818 15.96299581  2539
STARLINK-36938          
1 68124U 26044Z   26075.75002314 -.02128841  12875-2 -51753-2 0  9995
2 68124  97.2791  36.1971 0001679  89.6522  94.1008 15.96427887  2539
STARLINK-36839          
1 68125U 26044AA  26075.75002314 -.02132633  12881-2 -52581-2 0  9997
2 68125  97.2794  36.1950 0001634  89.0715  89.4334 15.96167086  2484
